SAUDISAT 1C (SO-50)     
1 27607U 02058C   25065.50363025  .00001991  00000+0  27002-3 0  9992
2 27607  64.5536 133.9159 0045236 357.4545   2.6323 14.81079169195149
SAUDISAT 2              
1 28371U 04025F   25065.66391115  .00000742  00000+0  17855-3 0  9993
2 28371  98.5182  49.5560 0023765 294.3624  65.5093 14.56170571 97694
SAUDISAT 3              
1 31118U 07012B   25065.73725679  .00000732  00000+0  12774-3 0  9993
2 31118  98.0885  12.7371 0013353 275.7356  84.2328 14.70892068959022
PISAT                   
1 41784U 16059B   25065.59619378  .00001888  00000+0  33916-3 0  9990
2 41784  97.8219  81.6977 0028292 257.6699 102.1338 14.67531073451125
FLYING LAPTOP           
1 42831U 17042G   25065.76140088  .00004715  00000+0  40368-3 0  9994
2 42831  97.3978 238.1838 0010290 271.3913  88.6131 14.97982844416402
SALSAT                  
1 46495U 20068K   25065.66774819  .00011470  00000+0  52784-3 0  9991
2 46495  97.8521  39.5087 0013917 125.0372 235.2170 15.20416469244092
